NOAA 19                 
1 33591U 09005A   23053.44688862  .00000224  00000+0  14564-3 0  9994
2 33591  99.1173  97.4559 0013616 202.1471 157.9114 14.12692804723744
